MESON-1                 
1 59131U 24043AK  26068.90019075  .00008544  00000+0  29748-3 0  9998
2 59131  97.5469 205.2839 0009545 227.1432 132.9007 15.29893494111890
STARLINK-32836          
1 62965U 25029T   26068.70805304  .00024434  00000+0  83428-3 0  9999
2 62965  53.1605 230.0081 0000915  96.0489 264.0617 15.30203614 61351
